{
  "10100": {
    "name": "尚志ハウス",
    "postalCode": "536-0006",
    "address": "大阪府大阪市城東区野江4-4-3"
  },
  "10200": {
    "name": "カーサ御崎",
    "postalCode": "559-0013",
    "address": "大阪府大阪市住之江区御崎3-2-8"
  },
  "10300": {
    "name": "ソフィア武庫川",
    "postalCode": "663-8136",
    "address": "兵庫県西宮市笠屋町13-6"
  },
  "10400": {
    "name": "コンセール愛宕山",
    "postalCode": "662-0871",
    "address": "兵庫県西宮市愛宕山10-55"
  },
  "10500": {
    "name": "グランデ・アステール芦屋",
    "postalCode": "659-0015",
    "address": "兵庫県芦屋市楠町15-2"
  },
  "10600": {
    "name": "フローラルハイツ服部",
    "postalCode": "561-0852",
    "address": "大阪府豊中市服部本町4-1-10"
  },
  "10700": {
    "name": "平和ビル",
    "postalCode": "663-8245",
    "address": "兵庫県西宮市津門呉羽町1-34"
  },
  "10720": {
    "name": "平和ビル203号室",
    "postalCode": "663-8245",
    "address": "兵庫県西宮市津門呉羽町1-34"
  },
  "10800": {
    "name": "コンセール上ヶ原",
    "postalCode": "662-0892",
    "address": "兵庫県西宮市上ヶ原２番町3-62"
  },
  "10900": {
    "name": "ベア・ベリー",
    "postalCode": "662-0833",
    "address": "兵庫県西宮市北昭和町14－9"
  },
  "11000": {
    "name": "DO・Z",
    "postalCode": "532-0012",
    "address": "大阪府大阪市淀川区木川東3-3-27"
  },
  "11100": {
    "name": "Ｍ＆Ｍウメダイースト",
    "postalCode": "530-0047",
    "address": "大阪府大阪市北区西天満6-4-9"
  },
  "11200": {
    "name": "フロン・ツオーネ",
    "postalCode": "561-0801",
    "address": "大阪府豊中市曽根西町3-1-20"
  },
  "11300": {
    "name": "Casaネッビア",
    "postalCode": "565-0844",
    "address": "大阪府吹田市千里山霧が丘8-1"
  },
  "11400": {
    "name": "ＮＥＸＴ２１",
    "postalCode": "546-0035",
    "address": "大阪府大阪市東住吉区山坂2-11-1"
  },
  "11500": {
    "name": "コンセール裕恵",
    "postalCode": "532-0013",
    "address": "大阪府大阪市淀川区木川西3-6-28"
  },
  "11600": {
    "name": "アルファ帝塚山",
    "postalCode": "558-0051",
    "address": "大阪府大阪市住吉区東粉浜2-13-4"
  },
  "11700": {
    "name": "ベルエアー",
    "postalCode": "530-0015",
    "address": "大阪府大阪市北区中崎西1-5-4"
  },
  "11800": {
    "name": "クレール相川",
    "postalCode": "533-0007",
    "address": "大阪府大阪市東淀川区相川3-4-12"
  },
  "12100": {
    "name": "エテルノヨシダ",
    "postalCode": "532-0023",
    "address": "大阪府大阪市淀川区十三東1-15-3"
  },
  "12200": {
    "name": "モノロカーレ江坂",
    "postalCode": "564-0062",
    "address": "大阪府吹田市垂水町3-17-32"
  },
  "12300": {
    "name": "小松・パラッツオ旧源蔵町",
    "postalCode": "530-0047",
    "address": "大阪府大阪市北区西天満3-3-18"
  },
  "12400": {
    "name": "ウェスツオーネ",
    "postalCode": "561-0801",
    "address": "大阪府豊中市曽根西町3-1-10"
  },
  "12500": {
    "name": "ドライバウム江坂",
    "postalCode": "564-0062",
    "address": "大阪府吹田市垂水町3-6-25"
  },
  "12600": {
    "name": "Is Grande",
    "postalCode": "533-0021",
    "address": "大阪府大阪市東淀川区下新庄6-12-12"
  },
  "12700": {
    "name": "グリーンロード白島",
    "postalCode": "562-0012",
    "address": "大阪府箕面市白島3-4-8"
  },
  "12800": {
    "name": "K’s SQUARE ESAKA",
    "postalCode": "564-0063",
    "address": "大阪府吹田市江坂町2-2-12"
  },
  "13000": {
    "name": "フローレンス江坂",
    "postalCode": "564-0052",
    "address": "大阪府吹田市広芝町9-9"
  },
  "13100": {
    "name": "ルミネ･ソレイユⅡ",
    "postalCode": "564-0062",
    "address": "大阪府吹田市垂水町2-2-36"
  },
  "20100": {
    "name": "藤マンション",
    "postalCode": "561-0852",
    "address": "大阪府豊中市服部本町1-6-27"
  },
  "20200": {
    "name": "ヒルバレー阪口",
    "postalCode": "565-0841",
    "address": "大阪府吹田市上山手町29-5"
  },
  "20400": {
    "name": "MAISON CIRCLE",
    "postalCode": "561-0854",
    "address": "大阪府豊中市稲津町1-5-34"
  },
  "20500": {
    "name": "大阪謄写館ビル",
    "postalCode": "530-0041",
    "address": "大阪府大阪市北区天神橋3-2-13"
  },
  "20700": {
    "name": "カーサ水堂",
    "postalCode": "661-0026",
    "address": "兵庫県尼崎市水堂町1-21-22"
  },
  "20900": {
    "name": "EBIC吹田",
    "postalCode": "564-0051",
    "address": "大阪府吹田市豊津町40-6"
  },
  "21100": {
    "name": "カームヒルズⅠ",
    "postalCode": "565-0836",
    "address": "大阪府吹田市佐井寺2-12-14"
  },
  "21200": {
    "name": "カームヒルズⅡ",
    "postalCode": "565-0836",
    "address": "大阪府吹田市佐井寺2-12-16"
  },
  "21300": {
    "name": "メゾンラフィネ",
    "postalCode": "533-0021",
    "address": "大阪府大阪市東淀川区下新庄4-3-5"
  },
  "21400": {
    "name": "ル・ウエスト・チトセ",
    "postalCode": "565-0073",
    "address": "大阪府吹田市山手町3-35-17"
  },
  "21500": {
    "name": "ル・イースト・チトセ",
    "postalCode": "565-0073",
    "address": "大阪府吹田市山手町3-35-20"
  },
  "21800": {
    "name": "Ａｒｔ２１",
    "postalCode": "533-0007",
    "address": "大阪府大阪市東淀川区相川3-1-13"
  },
  "21900": {
    "name": "プレステージ11番館",
    "postalCode": "590-0957",
    "address": "大阪府堺市堺区中之町西3-1-5"
  },
  "22000": {
    "name": "プレステージ12番館",
    "postalCode": "590-0956",
    "address": "大阪府堺市堺区中之町東3-1-29"
  },
  "22600": {
    "name": "阪口ハイツ",
    "postalCode": "533-0022",
    "address": "大阪府大阪市東淀川区菅原6-13-3"
  },
  "22700": {
    "name": "フェリス山手",
    "postalCode": "564-0073",
    "address": "大阪府吹田市山手町4-4-21"
  },
  "22800": {
    "name": "リディア・ランス上町台",
    "postalCode": "542-0063",
    "address": "大阪府大阪市中央区東平2-4-3"
  },
  "22900": {
    "name": "ルモン肥後橋公園前 202号",
    "postalCode": "550-0002",
    "address": "大阪府大阪市西区江戸堀1-27-1"
  },
  "23100": {
    "name": "フェリス千里山",
    "postalCode": "565-0851",
    "address": "大阪府吹田市千里山西1-1-11"
  },
  "23200": {
    "name": "VIVID円山",
    "postalCode": "564-0061",
    "address": "大阪府吹田市円山町20-23"
  },
  "23900": {
    "name": "ラクーン箕面",
    "postalCode": "562-0001",
    "address": "大阪府箕面市箕面6-6-45"
  },
  "24100": {
    "name": "吹田さんくす１番館106号（店舗）",
    "postalCode": "564-0027",
    "address": "大阪府吹田市朝日町１-106"
  },
  "24700": {
    "name": "泉町ロイヤルハイツＡ棟",
    "postalCode": "564-0041",
    "address": "大阪府吹田市泉町4-39-25"
  },
  "24800": {
    "name": "泉町ロイヤルハイツＣ棟",
    "postalCode": "564-0041",
    "address": "大阪府吹田市泉町4-38-35"
  },
  "26000": {
    "name": "グラン藤",
    "postalCode": "564-0073",
    "address": "大阪府吹田市山手町3-35-12"
  },
  "26100": {
    "name": "丸萬ビル",
    "postalCode": "564-0051",
    "address": "大阪府吹田市豊津町14-10"
  },
  "26500": {
    "name": "ハイアットコート薮野",
    "postalCode": "553-0006",
    "address": "大阪府大阪市福島区吉野2-8-8"
  },
  "26600": {
    "name": "プチセンリヤマ",
    "postalCode": "565-0842",
    "address": "大阪府吹田市千里山東1-16-1"
  },
  "26700": {
    "name": "セレーン清和園",
    "postalCode": "564-0039",
    "address": "大阪府吹田市清和園町23-4"
  },
  "26800": {
    "name": "サングレード千里",
    "postalCode": "565-0842",
    "address": "大阪府吹田市千里山東3-6-18"
  },
  "26900": {
    "name": "千里山サンライズ",
    "postalCode": "565-0842",
    "address": "大阪府吹田市千里山東3-6-19"
  },
  "27000": {
    "name": "ｳｪｽﾄﾌｨｰﾙﾄﾞ№3",
    "postalCode": "565-0841",
    "address": "大阪府吹田市上山手町8-4"
  },
  "27100": {
    "name": "ｳｪｽﾄﾌｨｰﾙﾄﾞ№4",
    "postalCode": "565-0841",
    "address": "大阪府吹田市上山手町8-1"
  },
  "27200": {
    "name": "ｳｪｽﾄﾌｨｰﾙﾄﾞ№5",
    "postalCode": "565-0841",
    "address": "大阪府吹田市上山手町13-8"
  },
  "27300": {
    "name": "タウンズマンション下村",
    "postalCode": "532-0013",
    "address": "大阪府大阪市淀川区木川東4-16-16"
  },
  "27400": {
    "name": "千里東壱番館",
    "postalCode": "565-0842",
    "address": "大阪府吹田市千里山東1-16-20"
  },
  "27500": {
    "name": "グランフォルム",
    "postalCode": "565-0841",
    "address": "大阪府吹田市上山手町1-20"
  },
  "27530": {
    "name": "KU Share House グランフォルム",
    "postalCode": "565-0841",
    "address": "大阪府吹田市上山手町1-20"
  },
  "27600": {
    "name": "ｳｪｽﾄﾌｨｰﾙﾄﾞ№6",
    "postalCode": "564-0083",
    "address": "大阪府吹田市朝日が丘町50-17"
  },
  "27700": {
    "name": "第二丸萬ビル",
    "postalCode": "564-0051",
    "address": "大阪府吹田市豊津町4-5"
  },
  "27900": {
    "name": "プレステージ9番館",
    "postalCode": "590-9043",
    "address": "大阪府堺市堺区車之町東2-2-20"
  },
  "28000": {
    "name": "エレガンスⅡ",
    "postalCode": "565-0842",
    "address": "大阪府吹田市千里山東4-47-2"
  },
  "28200": {
    "name": "エヌズコートウエスト",
    "postalCode": "594-0948",
    "address": "大阪府堺市戎之町西2-1-15"
  },
  "28300": {
    "name": "森田ビルディング",
    "postalCode": "541-0057",
    "address": "大阪府大阪市中央区北久宝寺3-4-12"
  },
  "28400": {
    "name": "佐久間ビル",
    "postalCode": "542-0085",
    "address": "大阪府大阪市中央区心斎橋筋2-7-25"
  },
  "28600": {
    "name": "Sena Hills 堺",
    "postalCode": "590-0945",
    "address": "大阪府堺市堺区戎之町東1-1-8"
  },
  "28700": {
    "name": "プレステージ六番館",
    "postalCode": "590-0945",
    "address": "大阪府堺市堺区戎之町東1-1-6"
  },
  "28800": {
    "name": "プレステージ七番館",
    "postalCode": "590-0952",
    "address": "大阪府堺市堺区市之町東4-2-24"
  },
  "28900": {
    "name": "LANI TOYONAKA",
    "postalCode": "561-0832",
    "address": "大阪府豊中市庄内西町2-25-16"
  },
  "29000": {
    "name": "エレガンスⅢ",
    "postalCode": "565-0842",
    "address": "大阪府吹田市千里山東4-47-1"
  },
  "29100": {
    "name": "プレステージ10番館",
    "postalCode": "590-9043",
    "address": "大阪府堺市堺区車之町東2-2-21"
  },
  "29200": {
    "name": "セレーン片山",
    "postalCode": "564-0082",
    "address": "大阪府吹田市片山町2-11-45"
  },
  "29300": {
    "name": "S・フルール千里",
    "postalCode": "564-0004",
    "address": "大阪府吹田市原町2-39-4"
  },
  "29400": {
    "name": "プレステージ13番館",
    "postalCode": "590-0938",
    "address": "大阪府堺市堺区神明町西1-1-7"
  },
  "29800": {
    "name": "CRUM-1",
    "postalCode": "532-0013",
    "address": "大阪府大阪市淀川区木川西4-1-37"
  },
  "29900": {
    "name": "Fmaison LibleⅢ",
    "postalCode": "547-0002",
    "address": "大阪府大阪市平野区加美東4-4-12"
  },
  "30100": {
    "name": "フィオーレ南平台",
    "postalCode": "569-1042",
    "address": "大阪府高槻市南平台3-29-18"
  },
  "30200": {
    "name": "エトワール田中",
    "postalCode": "569-1142",
    "address": "大阪府高槻市宮田町1-25-8"
  },
  "30300": {
    "name": "ジュネスコート",
    "postalCode": "569-1142",
    "address": "大阪府高槻市宮田町1-25-9"
  },
  "30400": {
    "name": "リュミエール北園",
    "postalCode": "569-0802",
    "address": "大阪府高槻市北園町4-25"
  },
  "30500": {
    "name": "ノイレーベン古曽部",
    "postalCode": "569-1115",
    "address": "大阪府高槻市古曽部町2-21-6"
  },
  "30600": {
    "name": "ユニバーサルコート",
    "postalCode": "567-0803",
    "address": "大阪府茨木市中総持寺町10-23"
  },
  "30700": {
    "name": "ヤーデンハウス",
    "postalCode": "567-0810",
    "address": "大阪府茨木市宮元町10-14"
  },
  "30800": {
    "name": "ドームイバロード",
    "postalCode": "567-0887",
    "address": "大阪府茨木市西中条町3-8"
  },
  "31000": {
    "name": "レーベンハイム",
    "postalCode": "569-0071",
    "address": "大阪府高槻市城北町2-3-11"
  },
  "31100": {
    "name": "ブラオ高槻",
    "postalCode": "569-1115",
    "address": "大阪府高槻市古曽部町2-19-16"
  },
  "31200": {
    "name": "ルーセントパークショア",
    "postalCode": "564-0011",
    "address": "大阪府吹田市岸部南1-9-26"
  },
  "31300": {
    "name": "Ｗｅｓｔ ＡＭＡ",
    "postalCode": "569-1107",
    "address": "大阪府高槻市安満西の町11-10"
  },
  "31400": {
    "name": "２２２番館",
    "postalCode": "569-1115",
    "address": "大阪府高槻市古曽部町2-18-28"
  },
  "31410": {
    "name": "222番館 店舗",
    "postalCode": "569-1115",
    "address": "大阪府高槻市古曽部町2-18-28"
  },
  "31500": {
    "name": "ﾗ ｳﾞｨｸﾚｰﾙ ｺｿﾍﾞ",
    "postalCode": "569-1115",
    "address": "大阪府高槻市古曽部町1-25-6"
  },
  "31600": {
    "name": "ガルリ高槻",
    "postalCode": "569-0806",
    "address": "大阪府高槻市明田町１－１６"
  },
  "31700": {
    "name": "アーブルヴィレッジ",
    "postalCode": "569-1121",
    "address": "大阪府高槻市真上町1-13-18"
  },
  "31800": {
    "name": "Galerie TAKATSUKI EST",
    "postalCode": "569-0803",
    "address": "大阪府高槻市高槻町6-11"
  },
  "31900": {
    "name": "ShaMaison Forena",
    "postalCode": "567-0810",
    "address": "大阪府茨木市宮元町2-24"
  },
  "32100": {
    "name": "Lago Primavera KOSOBE",
    "postalCode": "569-1115",
    "address": "大阪府高槻市古曽部町2-14-7"
  },
  "40100": {
    "name": "Ｙｏｕｓ Ｃｏｕｒｔ",
    "postalCode": "567-0810",
    "address": "大阪府茨木市宮元町1-13"
  },
  "40200": {
    "name": "ラ・メール",
    "postalCode": "569-1115",
    "address": "大阪府高槻市古曽部町1-11-6"
  },
  "40600": {
    "name": "ヘーベルメゾン うらら",
    "postalCode": "569-0078",
    "address": "大阪府高槻市大手町2-40"
  },
  "40800": {
    "name": "フェリーチェ古曽部",
    "postalCode": "569-1115",
    "address": "大阪府高槻市古曽部町2丁目12-24"
  },
  "40900": {
    "name": "フェリーチェ芥川",
    "postalCode": "569-1123",
    "address": "大阪府高槻市芥川町2-20-10"
  },
  "41000": {
    "name": "ﾎｰﾐｰﾚｼﾞﾃﾞﾝｽ",
    "postalCode": "569-1142",
    "address": "大阪府高槻市宮田町3-4-1"
  },
  "41100": {
    "name": "ｶｽﾃﾛﾐｭｰﾗｰ",
    "postalCode": "569-0071",
    "address": "大阪府高槻市城北町1-5-12"
  },
  "41200": {
    "name": "ベラ・ヴィッタ古曽部",
    "postalCode": "569-1115",
    "address": "大阪府高槻市古曽部町1-7-5"
  },
  "41300": {
    "name": "フェリーチェ真上Ⅰ棟",
    "postalCode": "569-1121",
    "address": "大阪府高槻市真上町1-13-33"
  },
  "41400": {
    "name": "フェリーチェ真上Ⅱ棟",
    "postalCode": "569-1121",
    "address": "大阪府高槻市真上町1-13-34"
  },
  "41500": {
    "name": "ﾒｿﾞﾝｳﾞｪｰﾙ月見町Ⅰ",
    "postalCode": "569-1122",
    "address": "大阪府高槻市月見町2-25"
  },
  "41600": {
    "name": "ﾒｿﾞﾝｳﾞｪｰﾙ月見町Ⅱ",
    "postalCode": "569-1122",
    "address": "大阪府高槻市月見町2-24"
  },
  "41800": {
    "name": "ﾊﾟﾗｯﾂｵ",
    "postalCode": "569-1117",
    "address": "大阪府高槻市天神町1-11-22"
  },
  "41900": {
    "name": "Neo天川",
    "postalCode": "569-0027",
    "address": "大阪府高槻市天川新町11-7,8"
  },
  "42000": {
    "name": "Ysｳﾞｨﾗ",
    "postalCode": "569-1115",
    "address": "大阪府高槻市古曽部町3-4-3"
  },
  "42200": {
    "name": "高槻ﾊｲﾑ",
    "postalCode": "569-0803",
    "address": "大阪府高槻市高槻町2-16"
  },
  "42800": {
    "name": "ﾛｼﾞｭﾏﾝ高槻804号",
    "postalCode": "569-0803",
    "address": "大阪府高槻市高槻町5-16"
  },
  "42900": {
    "name": "藤が丘町貸家",
    "postalCode": "564-0081",
    "address": "大阪府吹田市藤が丘町18-4"
  },
  "43900": {
    "name": "ﾒｿﾞﾝ月見町",
    "postalCode": "569-1122",
    "address": "大阪府高槻市月見町2-3"
  },
  "44000": {
    "name": "第2高槻ﾊｲﾑ",
    "postalCode": "569-0078",
    "address": "大阪府高槻市大手町5-33"
  },
  "44100": {
    "name": "COPULA WEST",
    "postalCode": "569-1105",
    "address": "大阪府高槻市安満中の町14-9"
  },
  "44200": {
    "name": "COPULA EAST",
    "postalCode": "569-1105",
    "address": "大阪府高槻市安満中の町14-9"
  },
  "44300": {
    "name": "メイビスタ高槻",
    "postalCode": "569-1123",
    "address": "大阪府高槻市芥川町1-10-26"
  },
  "44400": {
    "name": "ｼﾞｵﾀﾜｰ高槻ﾐｭｰｽﾞｶﾞｰﾃﾞﾝ2902号",
    "postalCode": "569-1116",
    "address": "大阪府高槻市白梅町5-15"
  },
  "44500": {
    "name": "水尾ハイム",
    "postalCode": "567-0891",
    "address": "大阪府茨木市水尾2-11-27"
  },
  "45300": {
    "name": "ＮＫレジデンスたかつき",
    "postalCode": "569-0805",
    "address": "大阪府高槻市上田辺10-25"
  },
  "46100": {
    "name": "DO IBARAKI",
    "postalCode": "567-0815",
    "address": "大阪府茨木市竹橋町3-11"
  },
  "49000": {
    "name": "NEVE SALICE",
    "postalCode": "569-1133",
    "address": "大阪府高槻市川西町2-23-7"
  },
  "50500": {
    "name": "カピオス上山手",
    "postalCode": "565-0842",
    "address": "大阪府吹田市千里山東4-8-20"
  },
  "50600": {
    "name": "アネックスアヅ",
    "postalCode": "565-0837",
    "address": "大阪府吹田市佐井寺南が丘8-35"
  },
  "50700": {
    "name": "ソキウス山手町",
    "postalCode": "564-0073",
    "address": "大阪府吹田市山手町4-24-9"
  },
  "50800": {
    "name": "グリーンコーポＹＡＹＯＩ",
    "postalCode": "565-0841",
    "address": "大阪府吹田市上山手町27-18"
  },
  "50900": {
    "name": "ハイツ上の山",
    "postalCode": "565-0841",
    "address": "大阪府吹田市上山手町17-26"
  },
  "51000": {
    "name": "ＬＡＰＵＴＡ２１",
    "postalCode": "564-0032",
    "address": "大阪府吹田市内本町1-22-9"
  },
  "51100": {
    "name": "パル下新庄",
    "postalCode": "533-0021",
    "address": "大阪府大阪市東淀川区下新庄6-3-31"
  },
  "51200": {
    "name": "ハイツイオン",
    "postalCode": "565-0841",
    "address": "大阪府吹田市上山手町23-37"
  },
  "51400": {
    "name": "＆space山手町",
    "postalCode": "564-0073",
    "address": "大阪府吹田市山手町4-24-6"
  },
  "51500": {
    "name": "Ｙ’ｓ Ｆｏｒｔｅｒｅｓｓｅ",
    "postalCode": "533-0021",
    "address": "大阪府大阪市東淀川区下新庄5-8-9"
  },
  "51700": {
    "name": "コート関大前",
    "postalCode": "564-0073",
    "address": "大阪府吹田市山手町3-13-7,8,11,12"
  },
  "51800": {
    "name": "ペルル垂水",
    "postalCode": "564-0062",
    "address": "大阪府吹田市垂水町1-32-1"
  },
  "51900": {
    "name": "エクセル千里",
    "postalCode": "565-0836",
    "address": "大阪府吹田市佐井寺2-1-10,12,13"
  },
  "52000": {
    "name": "サウザンドマイルズアーク",
    "postalCode": "566-0001",
    "address": "大阪府摂津市千里丘7-7-49"
  },
  "52100": {
    "name": "エンリィ学生マンション",
    "postalCode": "565-0851",
    "address": "大阪府吹田市千里山西2-1-4"
  },
  "52500": {
    "name": "グレイス丸萬",
    "postalCode": "564-0051",
    "address": "大阪府吹田市豊津町4-22"
  },
  "52600": {
    "name": "ブルズアイ",
    "postalCode": "565-0842",
    "address": "大阪府吹田市千里山東4-53-9"
  },
  "52700": {
    "name": "ドミトリオ仁王田",
    "postalCode": "564-0062",
    "address": "大阪府吹田市垂水町2-35-2"
  },
  "52800": {
    "name": "カーサスペリオーレⅠ",
    "postalCode": "533-0031",
    "address": "大阪府大阪市東淀川区西淡路5-19-13"
  },
  "52900": {
    "name": "ユニコート",
    "postalCode": "533-0032",
    "address": "大阪府大阪市東淀川区淡路5-16-30"
  },
  "53000": {
    "name": "アレルヤ",
    "postalCode": "533-0021",
    "address": "大阪府大阪市東淀川区下新庄3-1-17"
  },
  "53100": {
    "name": "カーサスペリオーレⅡ",
    "postalCode": "533-0022",
    "address": "大阪府大阪市東淀川区菅原7-6-17"
  },
  "53200": {
    "name": "メゾン・ド・山手",
    "postalCode": "564-0073",
    "address": "大阪府吹田市山手町1-16-6"
  },
  "53300": {
    "name": "ディアス山手Ⅲ",
    "postalCode": "564-0073",
    "address": "大阪府吹田市山手町３-19-6"
  },
  "53500": {
    "name": "プルミエールメゾン江坂",
    "postalCode": "564-0062",
    "address": "大阪府吹田市垂水町3-26-12"
  },
  "53600": {
    "name": "ベルクレール緑地公園",
    "postalCode": "564-0063",
    "address": "大阪府吹田市江坂町5-6-6"
  },
  "53700": {
    "name": "ヒルサイドハウス源",
    "postalCode": "565-0841",
    "address": "大阪府吹田市上山手町3-1"
  },
  "53800": {
    "name": "エルセレーノ吹田",
    "postalCode": "564-0036",
    "address": "大阪府吹田市寿町２丁目27-27"
  },
  "53900": {
    "name": "アルペジオ山手Ⅰ",
    "postalCode": "564-0073",
    "address": "大阪府吹田市山手町2-16-32"
  },
  "54000": {
    "name": "アルペジオ山手Ⅱ",
    "postalCode": "564-0073",
    "address": "大阪府吹田市山手町3-22-2"
  },
  "54100": {
    "name": "朝日ハイツ",
    "postalCode": "564-0083",
    "address": "大阪府吹田市朝日が丘町29-12"
  },
  "54200": {
    "name": "カサ・デ・グラナダ",
    "postalCode": "564-0062",
    "address": "大阪府吹田市垂水町2-35-6"
  },
  "54240": {
    "name": "カサ・デ・グラナダ【管理委託】",
    "postalCode": "564-0062",
    "address": "大阪府吹田市垂水町2-35-6"
  },
  "60200": {
    "name": "コスモハイツ",
    "postalCode": "564-0041",
    "address": "大阪府吹田市泉町3-13-17"
  },
  "60300": {
    "name": "カーサヒロ",
    "postalCode": "564-0041",
    "address": "大阪府吹田市泉町5-1-26"
  },
  "60400": {
    "name": "サニーハイツⅠ",
    "postalCode": "565-0841",
    "address": "大阪府吹田市上山手町13-16"
  },
  "60500": {
    "name": "サニーハイツⅡ",
    "postalCode": "565-0842",
    "address": "大阪府吹田市千里山東3-1-7"
  },
  "60600": {
    "name": "クリスタルコート",
    "postalCode": "564-0072",
    "address": "大阪府吹田市出口町27-14"
  },
  "60700": {
    "name": "みどり之園",
    "postalCode": "564-0062",
    "address": "大阪府吹田市垂水町1-45-30"
  },
  "60800": {
    "name": "ダイキハイム",
    "postalCode": "565-0842",
    "address": "大阪府吹田市千里山東2-21-33"
  },
  "61400": {
    "name": "M:COURT関大前",
    "postalCode": "565-0842",
    "address": "大阪府吹田市千里山東1-7-38"
  },
  "62400": {
    "name": "山豊ハイツ",
    "postalCode": "564-0073",
    "address": "大阪府吹田市山手町3-34-1"
  },
  "62500": {
    "name": "ウェルフェア―Ⅱ",
    "postalCode": "565-0841",
    "address": "大阪府吹田市上山手町19-23"
  },
  "63100": {
    "name": "風情ある野江町家",
    "postalCode": "536-0006",
    "address": "大阪府大阪市城東区野江4-4-17"
  },
  "63300": {
    "name": "レジデンス石橋",
    "postalCode": "563-0032",
    "address": "大阪府池田市石橋1-19-5"
  },
  "63400": {
    "name": "S･フルール",
    "postalCode": "532-0003",
    "address": "大阪府大阪市淀川区宮原2-3-6"
  },
  "63500": {
    "name": "ＮＣグリーンハイツ",
    "postalCode": "564-0062",
    "address": "大阪府吹田市垂水町2-7-20"
  },
  "63600": {
    "name": "サンメゾン",
    "postalCode": "547-0033",
    "address": "大阪府大阪市平野区平野西4-7-12"
  },
  "63700": {
    "name": "池田町 吉本ビル",
    "postalCode": "530-0033",
    "address": "大阪府大阪市北区池田町17-7"
  },
  "63800": {
    "name": "十三東 倉庫兼事務所",
    "postalCode": "",
    "address": "大阪府大阪市淀川区十三東1-15-21"
  },
  "64100": {
    "name": "ソサエティ山手",
    "postalCode": "564-0073",
    "address": "大阪府吹田市山手町3-20-18"
  },
  "64400": {
    "name": "ハイツ関大前",
    "postalCode": "565-0842",
    "address": "大阪府吹田市千里山東1-9-6"
  },
  "64500": {
    "name": "ソレイユ関大前",
    "postalCode": "565-0842",
    "address": "大阪府吹田市千里山東1-9-14"
  },
  "64600": {
    "name": "ハイツ丸栄",
    "postalCode": "565-0851",
    "address": "大阪府吹田市千里山西6-63-12"
  },
  "65100": {
    "name": "ロイヤルクイーンズパーク関大前",
    "postalCode": "564-0073",
    "address": "大阪府吹田市山手町3-36-17"
  },
  "66000": {
    "name": "グランフェリオ",
    "postalCode": "564-0023",
    "address": "大阪府吹田市日の出町7-1"
  },
  "70100": {
    "name": "彩都シオン",
    "postalCode": "562-0028",
    "address": "大阪府箕面市彩都粟生南2-12-69"
  },
  "70200": {
    "name": "グランヴァレー彩都",
    "postalCode": "567-0085",
    "address": "大阪府茨木市彩都あさぎ1-2-18"
  },
  "80100": {
    "name": "中川西貸家",
    "postalCode": "544-0032",
    "address": "大阪府大阪市生野区中川西1-9-11"
  },
  "80200": {
    "name": "寿町2丁目貸家（保条邸）",
    "postalCode": "564-0036",
    "address": "大阪府吹田市寿町2-12-8"
  },
  "80400": {
    "name": "内本町テラスハウス",
    "postalCode": "564-0032",
    "address": "大阪府吹田市内本町3-27-14"
  },
  "820800": {
    "name": "マンションてりは",
    "postalCode": "563-0058",
    "address": "大阪府池田市栄本町9-4"
  },
  "821000": {
    "name": "ドミール泉",
    "postalCode": "564-0041",
    "address": "大阪府吹田市泉町5-24-28"
  },
  "85300": {
    "name": "小野原東５丁目貸家",
    "postalCode": "562-0031",
    "address": "大阪府箕面市小野原東5-22-38"
  },
  "85900": {
    "name": "北千里ｸﾞﾗﾝﾄﾞﾊﾟｰｸｽｸｴｱB棟904号",
    "postalCode": "565-0872",
    "address": "大阪府吹田市上山田7-B-904"
  },
  "860700": {
    "name": "フェアリーフラッツ",
    "postalCode": "565-0843",
    "address": "大阪府吹田市千里山松が丘26-21"
  },
  "861000": {
    "name": "ドルチェ山手壱番館",
    "postalCode": "565-0073",
    "address": "大阪府吹田市山手町4-33-3"
  },
  "861100": {
    "name": "ドルチェアネックス",
    "postalCode": "565-0842",
    "address": "大阪府吹田市千里山東4-58-2"
  },
  "861200": {
    "name": "A HOUSE",
    "postalCode": "565-0851",
    "address": "大阪府吹田市千里山西1-36-6"
  },
  "861600": {
    "name": "ホワイティ18",
    "postalCode": "566-0034",
    "address": "大阪府摂津市香露園27-17"
  },
  "861800": {
    "name": "南吹田4丁目貸家",
    "postalCode": "564-0043",
    "address": "大阪府吹田市南吹田4-10-13"
  },
  "86300": {
    "name": "茨木市花園貸家",
    "postalCode": "567-0017",
    "address": "大阪府茨木市花園2-3-27"
  },
  "895600": {
    "name": "ユーズテラス上山手",
    "postalCode": "565-0841",
    "address": "大阪府吹田市上山手町25-3"
  },
  "895700": {
    "name": "セブンヒルズ千里山",
    "postalCode": "565-0842",
    "address": "大阪府吹田市千里山東4-6-22"
  },
  "895800": {
    "name": "横山第8ﾏﾝｼｮﾝ",
    "postalCode": "565-0837",
    "address": "大阪府吹田市佐井寺南が丘8-38"
  },
  "895900": {
    "name": "ｾﾝﾄﾗﾙ横山",
    "postalCode": "565-0842",
    "address": "大阪府吹田市千里山東1-16-2"
  },
  "899200": {
    "name": "フホーハイツ",
    "postalCode": "552-0021",
    "address": "大阪府大阪市港区築港3丁目5-5"
  },
  "899300": {
    "name": "フレシア芦屋",
    "postalCode": "659-0021",
    "address": "兵庫県芦屋市春日町5-5"
  },
  "899500": {
    "name": "サンハイツ阪口",
    "postalCode": "564-0073",
    "address": "大阪府吹田市山手町4-14-30"
  },
  "899600": {
    "name": "ｿﾌｨｱｺｰﾄ千里",
    "postalCode": "565-0841",
    "address": "大阪府吹田市上山手町24-26"
  },
  "899700": {
    "name": "ホテルコンフォルト",
    "postalCode": "563-0033",
    "address": "大阪府池田市住吉2-13-19"
  },
  "90100": {
    "name": "天神橋ハイム",
    "postalCode": "531-0074",
    "address": "大阪府大阪市北区本庄東２-2-27"
  },
  "90200": {
    "name": "コンセルト片山",
    "postalCode": "564-0082",
    "address": "大阪府吹田市片山町3丁目37-21"
  },
  "90300": {
    "name": "＆Space",
    "postalCode": "567-0058",
    "address": "大阪府茨木市西豊川町13-26"
  },
  "90500": {
    "name": "横山第１ﾏﾝｼｮﾝ",
    "postalCode": "565-0841",
    "address": "大阪府吹田市上山手町29-2"
  },
  "90600": {
    "name": "＆Space茨木",
    "postalCode": "567-0057",
    "address": "大阪府茨木市豊川2-9-25"
  },
  "95200": {
    "name": "横山第２ハイツ",
    "postalCode": "565-0841",
    "address": "大阪府吹田市上山手町1-1"
  },
  "99210": {
    "name": "Metrosa朝潮橋",
    "postalCode": "552-0004",
    "address": "大阪府大阪市港区夕凪2-18-24"
  },
  "99901": {
    "name": "サニー商事",
    "postalCode": "",
    "address": ""
  }
}